FENGYUN 1C DEB          
1 30396U 99025ADK 17345.83024067  .00000003  00000-0  33035-4 0  9997
2 30396  98.2947 285.0751 0134080 278.7139 135.3444 13.86408572550922
